STARLINK-11262 [DTC]    
1 62009U 24213B   26068.19501251  .00311143  00000+0  24809-2 0  9992
2 62009  53.1580  43.9857 0001557  70.8478 289.2708 15.69681129 74835
SILVERSAT               
1 66909U 98067XV  26068.26463686  .00211631  00000+0  15445-2 0  9997
2 66909  51.6252  67.0520 0005527  73.9744 286.1863 15.72057374 15120
